start=new Date('2022-08-20T00:00:00.000Z').valueOf();
sats=[{"SEMIMAJOR_AXIS":"6917.978","MEAN_MOTION_DDOT":"0.0000000000000","CLASSIFICATION_TYPE":"U","CENTER_NAME":"EARTH","MEAN_MOTION_DOT":"0.00042291","GP_ID":"210550277","MEAN_ANOMALY":"207.5262","LAUNCH_DATE":"2022-04-29","REV_AT_EPOCH":"130","OBJECT_NAME":"STARLINK-3820","MEAN_MOTION":"15.08808228","ELEMENT_SET_NO":"999","REF_FRAME":"TEME","EPOCH":"2022-08-19T22:00:00.999936","SITE":"AFETR","FILE":"3540705","PERIAPSIS":"538.597","ARG_OF_PERICENTER":"40.0554","OBJECT_TYPE":"PAYLOAD","APOAPSIS":"541.088","DECAY_DATE":null,"PERIOD":"95.440","INCLINATION":"53.2137","OBJECT_ID":"2022-045AK","EPHEMERIS_TYPE":"0","RA_OF_ASC_NODE":"255.0487","MEAN_ELEMENT_THEORY":"SGP4","TLE_LINE2":"2 52364  53.2137 255.0487 0001801  40.0554 207.5262 15.08808228  1302","TIME_SYSTEM":"UTC","BSTAR":"0.00266170000000","TLE_LINE1":"1 52364U 22045AK  22231.91667824  .00042291  00000-0  26617-2 0  9998","RCS_SIZE":"LARGE","NORAD_CAT_ID":"52364","COUNTRY_CODE":"US","ECCENTRICITY":"0.00018010"},{"ECCENTRICITY":"0.00020540","COUNTRY_CODE":"US","NORAD_CAT_ID":"52365","RCS_SIZE":"LARGE","BSTAR":"0.00258700000000","TLE_LINE1":"1 52365U 22045AL  22231.91667824  .00039277  00000-0  25870-2 0  9999","TIME_SYSTEM":"UTC","TLE_LINE2":"2 52365  53.2141 254.9956 0002054  47.7027 152.8407 15.07169282  1309","MEAN_ELEMENT_THEORY":"SGP4","RA_OF_ASC_NODE":"254.9956","EPHEMERIS_TYPE":"0","OBJECT_ID":"2022-045AL","INCLINATION":"53.2141","PERIOD":"95.543","DECAY_DATE":null,"APOAPSIS":"546.279","OBJECT_TYPE":"PAYLOAD","ARG_OF_PERICENTER":"47.7027","PERIAPSIS":"543.435","SITE":"AFETR","FILE":"3540705","EPOCH":"2022-08-19T22:00:00.999936","REF_FRAME":"TEME","ELEMENT_SET_NO":"999","MEAN_MOTION":"15.07169282","REV_AT_EPOCH":"130","OBJECT_NAME":"STARLINK-3874","LAUNCH_DATE":"2022-04-29","MEAN_ANOMALY":"152.8407","GP_ID":"210549993","MEAN_MOTION_DOT":"0.00039277","CENTER_NAME":"EARTH","CLASSIFICATION_TYPE":"U","MEAN_MOTION_DDOT":"0.0000000000000","SEMIMAJOR_AXIS":"6922.992"},{"ECCENTRICITY":"0.00018720","COUNTRY_CODE":"US","BSTAR":"0.00273740000000","TLE_LINE1":"1 52366U 22045AM  22231.91667824  .00043495  00000-0  27374-2 0  9998","NORAD_CAT_ID":"52366","RCS_SIZE":"LARGE","TIME_SYSTEM":"UTC","MEAN_ELEMENT_THEORY":"SGP4","TLE_LINE2":"2 52366  53.2126 255.0466 0001872  39.8309 232.9701 15.08796638  1302","OBJECT_ID":"2022-045AM","RA_OF_ASC_NODE":"255.0466","EPHEMERIS_TYPE":"0","INCLINATION":"53.2126","DECAY_DATE":null,"APOAPSIS":"541.173","PERIOD":"95.440","OBJECT_TYPE":"PAYLOAD","PERIAPSIS":"538.583","ARG_OF_PERICENTER":"39.8309","EPOCH":"2022-08-19T22:00:00.999936","FILE":"3540705","SITE":"AFETR","MEAN_MOTION":"15.08796638","ELEMENT_SET_NO":"999","REF_FRAME":"TEME","GP_ID":"210550135","MEAN_ANOMALY":"232.9701","REV_AT_EPOCH":"130","OBJECT_NAME":"STARLINK-3808","LAUNCH_DATE":"2022-04-29","MEAN_MOTION_DOT":"0.00043495","CENTER_NAME":"EARTH","CLASSIFICATION_TYPE":"U","SEMIMAJOR_AXIS":"6918.013","MEAN_MOTION_DDOT":"0.0000000000000"},{"MEAN_MOTION":"15.08807256","ELEMENT_SET_NO":"999","REF_FRAME":"TEME","MEAN_ANOMALY":"189.3821","GP_ID":"210549439","LAUNCH_DATE":"2022-04-29","OBJECT_NAME":"STARLINK-3817","REV_AT_EPOCH":"130","PERIAPSIS":"538.592","ARG_OF_PERICENTER":"43.3784","EPOCH":"2022-08-19T22:00:00.999936","FILE":"3540705","SITE":"AFETR","SEMIMAJOR_AXIS":"6917.980","MEAN_MOTION_DDOT":"0.0000000000000","MEAN_MOTION_DOT":"0.00041218","CLASSIFICATION_TYPE":"U","CENTER_NAME":"EARTH","TLE_LINE1":"1 52367U 22045AN  22231.91667824  .00041218  00000-0  25951-2 0  9999","BSTAR":"0.00259510000000","NORAD_CAT_ID":"52367","RCS_SIZE":"LARGE","TLE_LINE2":"2 52367  53.2139 255.0507 0001812  43.3784 189.3821 15.08807256  1301","MEAN_ELEMENT_THEORY":"SGP4","TIME_SYSTEM":"UTC","COUNTRY_CODE":"US","ECCENTRICITY":"0.00018120","APOAPSIS":"541.099","DECAY_DATE":null,"PERIOD":"95.440","OBJECT_TYPE":"PAYLOAD","OBJECT_ID":"2022-045AN","EPHEMERIS_TYPE":"0","RA_OF_ASC_NODE":"255.0507","INCLINATION":"53.2139"},{"MEAN_MOTION_DDOT":"0.0000000000000","SEMIMAJOR_AXIS":"6918.000","CLASSIFICATION_TYPE":"U","CENTER_NAME":"EARTH","MEAN_MOTION_DOT":"0.00045144","LAUNCH_DATE":"2022-04-29","REV_AT_EPOCH":"130","OBJECT_NAME":"STARLINK-3834","MEAN_ANOMALY":"282.5806","GP_ID":"210550426","ELEMENT_SET_NO":"999","REF_FRAME":"TEME","MEAN_MOTION":"15.08800807","SITE":"AFETR","FILE":"3540705","EPOCH":"2022-08-19T22:00:00.999936","ARG_OF_PERICENTER":"50.1975","PERIAPSIS":"538.635","OBJECT_TYPE":"PAYLOAD","PERIOD":"95.440","APOAPSIS":"541.095","DECAY_DATE":null,"INCLINATION":"53.2139","RA_OF_ASC_NODE":"255.0447","EPHEMERIS_TYPE":"0","OBJECT_ID":"2022-045AP","TLE_LINE2":"2 52368  53.2139 255.0447 0001778  50.1975 282.5806 15.08800807  1308","MEAN_ELEMENT_THEORY":"SGP4","TIME_SYSTEM":"UTC","RCS_SIZE":"LARGE","NORAD_CAT_ID":"52368","TLE_LINE1":"1 52368U 22045AP  22231.91667824  .00045144  00000-0  28395-2 0  9997","BSTAR":"0.00283950000000","COUNTRY_CODE":"US","ECCENTRICITY":"0.00017780"},{"TIME_SYSTEM":"UTC","TLE_LINE2":"2 52369  53.2135 255.0443 0002094  48.3466 204.4219 15.08809882  1300","MEAN_ELEMENT_THEORY":"SGP4","TLE_LINE1":"1 52369U 22045AQ  22231.91667824  .00042562  00000-0  26784-2 0  9999","BSTAR":"0.00267840000000","NORAD_CAT_ID":"52369","RCS_SIZE":"LARGE","ECCENTRICITY":"0.00020940","COUNTRY_CODE":"US","OBJECT_TYPE":"PAYLOAD","DECAY_DATE":null,"APOAPSIS":"541.286","PERIOD":"95.439","INCLINATION":"53.2135","OBJECT_ID":"2022-045AQ","RA_OF_ASC_NODE":"255.0443","EPHEMERIS_TYPE":"0","GP_ID":"210549580","MEAN_ANOMALY":"204.4219","OBJECT_NAME":"STARLINK-3841","REV_AT_EPOCH":"130","LAUNCH_DATE":"2022-04-29","MEAN_MOTION":"15.08809882","ELEMENT_SET_NO":"999","REF_FRAME":"TEME","EPOCH":"2022-08-19T22:00:00.999936","SITE":"AFETR","FILE":"3540705","PERIAPSIS":"538.389","ARG_OF_PERICENTER":"48.3466","SEMIMAJOR_AXIS":"6917.972","MEAN_MOTION_DDOT":"0.0000000000000","CENTER_NAME":"EARTH","CLASSIFICATION_TYPE":"U","MEAN_MOTION_DOT":"0.00042562"},{"GP_ID":"210549721","MEAN_ANOMALY":"250.6391","LAUNCH_DATE":"2022-04-29","REV_AT_EPOCH":"130","OBJECT_NAME":"STARLINK-3827","MEAN_MOTION":"15.08798126","ELEMENT_SET_NO":"999","REF_FRAME":"TEME","EPOCH":"2022-08-19T22:00:00.999936","FILE":"3540705","SITE":"AFETR","PERIAPSIS":"538.322","ARG_OF_PERICENTER":"42.1402","SEMIMAJOR_AXIS":"6918.008","MEAN_MOTION_DDOT":"0.0000000000000","CLASSIFICATION_TYPE":"U","CENTER_NAME":"EARTH","MEAN_MOTION_DOT":"0.00044583","MEAN_ELEMENT_THEORY":"SGP4","TLE_LINE2":"2 52370  53.2134 255.0458 0002243  42.1402 250.6391 15.08798126  1307","TIME_SYSTEM":"UTC","BSTAR":"0.00280480000000","TLE_LINE1":"1 52370U 22045AR  22231.91667824  .00044583  00000-0  28048-2 0  9991","RCS_SIZE":"LARGE","NORAD_CAT_ID":"52370","COUNTRY_CODE":"US","ECCENTRICITY":"0.00022430","OBJECT_TYPE":"PAYLOAD","APOAPSIS":"541.425","DECAY_DATE":null,"PERIOD":"95.440","INCLINATION":"53.2134","OBJECT_ID":"2022-045AR","RA_OF_ASC_NODE":"255.0458","EPHEMERIS_TYPE":"0"},{"RA_OF_ASC_NODE":"255.0448","EPHEMERIS_TYPE":"0","OBJECT_ID":"2022-045AS","INCLINATION":"53.2128","PERIOD":"95.440","DECAY_DATE":null,"APOAPSIS":"541.217","OBJECT_TYPE":"PAYLOAD","ECCENTRICITY":"0.00019860","COUNTRY_CODE":"US","RCS_SIZE":"LARGE","NORAD_CAT_ID":"52371","BSTAR":"0.00282290000000","TLE_LINE1":"1 52371U 22045AS  22231.91667824  .00044886  00000-0  28229-2 0  9999","TIME_SYSTEM":"UTC","TLE_LINE2":"2 52371  53.2128 255.0448 0001986  43.5735 269.1815 15.08807892  1304","MEAN_ELEMENT_THEORY":"SGP4","MEAN_MOTION_DOT":"0.00044886","CENTER_NAME":"EARTH","CLASSIFICATION_TYPE":"U","MEAN_MOTION_DDOT":"0.0000000000000","SEMIMAJOR_AXIS":"6917.979","ARG_OF_PERICENTER":"43.5735","PERIAPSIS":"538.470","SITE":"AFETR","FILE":"3540705","EPOCH":"2022-08-19T22:00:00.999936","ELEMENT_SET_NO":"999","REF_FRAME":"TEME","MEAN_MOTION":"15.08807892","REV_AT_EPOCH":"130","OBJECT_NAME":"STARLINK-3798","LAUNCH_DATE":"2022-04-29","GP_ID":"210549853","MEAN_ANOMALY":"269.1815"},{"CLASSIFICATION_TYPE":"U","CENTER_NAME":"EARTH","MEAN_MOTION_DOT":"0.00045119","SEMIMAJOR_AXIS":"6918.007","MEAN_MOTION_DDOT":"0.0000000000000","EPOCH":"2022-08-19T22:00:00.999936","FILE":"3540705","SITE":"AFETR","PERIAPSIS":"538.700","ARG_OF_PERICENTER":"49.1046","MEAN_ANOMALY":"303.6808","GP_ID":"210550278","LAUNCH_DATE":"2022-04-29","OBJECT_NAME":"STARLINK-3796","REV_AT_EPOCH":"130","MEAN_MOTION":"15.08798672","ELEMENT_SET_NO":"999","REF_FRAME":"TEME","INCLINATION":"53.2154","OBJECT_ID":"2022-045AT","EPHEMERIS_TYPE":"0","RA_OF_ASC_NODE":"255.0344","OBJECT_TYPE":"PAYLOAD","APOAPSIS":"541.044","DECAY_DATE":null,"PERIOD":"95.440","COUNTRY_CODE":"US","ECCENTRICITY":"0.00016940","MEAN_ELEMENT_THEORY":"SGP4","TLE_LINE2":"2 52372  53.2154 255.0344 0001694  49.1046 303.6808 15.08798672  1303","TIME_SYSTEM":"UTC","TLE_LINE1":"1 52372U 22045AT  22231.91667824  .00045119  00000-0  28381-2 0  9999","BSTAR":"0.00283810000000","NORAD_CAT_ID":"52372","RCS_SIZE":"LARGE"},{"MEAN_MOTION_DDOT":"0.0000000000000","SEMIMAJOR_AXIS":"6917.967","CENTER_NAME":"EARTH","CLASSIFICATION_TYPE":"U","MEAN_MOTION_DOT":"0.00043983","OBJECT_NAME":"STARLINK-3550","REV_AT_EPOCH":"130","LAUNCH_DATE":"2022-04-29","GP_ID":"210549994","MEAN_ANOMALY":"353.4206","ELEMENT_SET_NO":"999","REF_FRAME":"TEME","MEAN_MOTION":"15.08811522","FILE":"3540705","SITE":"AFETR","EPOCH":"2022-08-19T22:00:00.999936","ARG_OF_PERICENTER":"59.3673","PERIAPSIS":"538.685","OBJECT_TYPE":"PAYLOAD","PERIOD":"95.439","DECAY_DATE":null,"APOAPSIS":"540.979","INCLINATION":"53.2158","EPHEMERIS_TYPE":"0","RA_OF_ASC_NODE":"255.0318","OBJECT_ID":"2022-045AU","TIME_SYSTEM":"UTC","MEAN_ELEMENT_THEORY":"SGP4","TLE_LINE2":"2 52373  53.2158 255.0318 0001658  59.3673 353.4206 15.08811522  1303","NORAD_CAT_ID":"52373","RCS_SIZE":"LARGE","BSTAR":"0.00276660000000","TLE_LINE1":"1 52373U 22045AU  22231.91667824  .00043983  00000-0  27666-2 0  9992","ECCENTRICITY":"0.00016580","COUNTRY_CODE":"US"}];
